{
  "type": "FeatureCollection",
  "features": [
    {
      "type": "Feature",
      "properties": {
        "norad_id": 34420,
        "name": "COSMOS 2251 DEB",
        "group": "cosmos-2251-debris",
        "lat": 3.8293603822542384,
        "lon": -95.37774743081943,
        "alt_km": 602.7263975309133,
        "timestamp": "2025-12-22T04:03:39.562744+00:00",
        "meta_object_name": "COSMOS 2251 DEB",
        "meta_object_id": "1993-036RM",
        "meta_epoch": "2025-12-21T16:33:08.574048",
        "meta_mean_motion": 14.68321985,
        "meta_eccentricity": 0.0106252,
        "meta_inclination": 74.0334,
        "meta_ra_of_asc_node": 86.6475,
        "meta_arg_of_pericenter": 205.6649,
        "meta_mean_anomaly": 317.1141,
        "meta_ephemeris_type": 0,
        "meta_classification_type": "U",
        "meta_norad_cat_id": 34420,
        "meta_element_set_no": 999,
        "meta_rev_at_epoch": 89901,
        "meta_bstar": 0.00017997,
        "meta_mean_motion_dot": 1.096e-05,
        "meta_mean_motion_ddot": 0,
        "tle_line1": "1 34420U 93036RM  25355.68968257  .00001096  00000+0  17997-3 0  9996",
        "tle_line2": "2 34420  74.0334  86.6475 0106252 205.6649 317.1141 14.68321985899012"
      },
      "geometry": {
        "type": "Point",
        "coordinates": [
          -95.37774743081943,
          3.8293603822542384
        ]
      }
    },
    {
      "type": "Feature",
      "properties": {
        "norad_id": 34425,
        "name": "COSMOS 2251 DEB",
        "group": "cosmos-2251-debris",
        "lat": 51.72979354957083,
        "lon": 57.743955324249505,
        "alt_km": 685.5724836156323,
        "timestamp": "2025-12-22T04:03:39.562754+00:00",
        "meta_object_name": "COSMOS 2251 DEB",
        "meta_object_id": "1993-036RS",
        "meta_epoch": "2025-12-21T06:27:49.476096",
        "meta_mean_motion": 14.62170318,
        "meta_eccentricity": 0.0024348,
        "meta_inclination": 74.0185,
        "meta_ra_of_asc_node": 38.1671,
        "meta_arg_of_pericenter": 162.2654,
        "meta_mean_anomaly": 197.9368,
        "meta_ephemeris_type": 0,
        "meta_classification_type": "U",
        "meta_norad_cat_id": 34425,
        "meta_element_set_no": 999,
        "meta_rev_at_epoch": 88865,
        "meta_bstar": 0.00038687,
        "meta_mean_motion_dot": 1.925e-05,
        "meta_mean_motion_ddot": 0,
        "tle_line1": "1 34425U 93036RS  25355.26932264  .00001925  00000+0  38687-3 0  9994",
        "tle_line2": "2 34425  74.0185  38.1671 0024348 162.2654 197.9368 14.62170318888659"
      },
      "geometry": {
        "type": "Point",
        "coordinates": [
          57.743955324249505,
          51.72979354957083
        ]
      }
    },
    {
      "type": "Feature",
      "properties": {
        "norad_id": 34429,
        "name": "COSMOS 2251 DEB",
        "group": "cosmos-2251-debris",
        "lat": -9.0573018556146,
        "lon": 144.81529685154078,
        "alt_km": 425.9291207508668,
        "timestamp": "2025-12-22T04:03:39.562764+00:00",
        "meta_object_name": "COSMOS 2251 DEB",
        "meta_object_id": "1993-036RW",
        "meta_epoch": "2025-12-21T17:16:48.118368",
        "meta_mean_motion": 15.45129102,
        "meta_eccentricity": 0.0012156,
        "meta_inclination": 73.9669,
        "meta_ra_of_asc_node": 148.4249,
        "meta_arg_of_pericenter": 348.9874,
        "meta_mean_anomaly": 23.9309,
        "meta_ephemeris_type": 0,
        "meta_classification_type": "U",
        "meta_norad_cat_id": 34429,
        "meta_element_set_no": 999,
        "meta_rev_at_epoch": 89587,
        "meta_bstar": 0.0050564,
        "meta_mean_motion_dot": 0.00247928,
        "meta_mean_motion_ddot": 0,
        "tle_line1": "1 34429U 93036RW  25355.72000137  .00247928  00000+0  50564-2 0  9996",
        "tle_line2": "2 34429  73.9669 148.4249 0012156 348.9874  23.9309 15.45129102895877"
      },
      "geometry": {
        "type": "Point",
        "coordinates": [
          144.81529685154078,
          -9.0573018556146
        ]
      }
    },
    {
      "type": "Feature",
      "properties": {
        "norad_id": 34430,
        "name": "COSMOS 2251 DEB",
        "group": "cosmos-2251-debris",
        "lat": 25.36357252134716,
        "lon": 98.17374589008868,
        "alt_km": 799.2094012852449,
        "timestamp": "2025-12-22T04:03:39.562774+00:00",
        "meta_object_name": "COSMOS 2251 DEB",
        "meta_object_id": "1993-036RX",
        "meta_epoch": "2025-12-21T05:40:15.366144",
        "meta_mean_motion": 14.39656324,
        "meta_eccentricity": 0.0060747,
        "meta_inclination": 74.0518,
        "meta_ra_of_asc_node": 287.6852,
        "meta_arg_of_pericenter": 355.3377,
        "meta_mean_anomaly": 4.7203,
        "meta_ephemeris_type": 0,
        "meta_classification_type": "U",
        "meta_norad_cat_id": 34430,
        "meta_element_set_no": 999,
        "meta_rev_at_epoch": 88077,
        "meta_bstar": 0.00036784704,
        "meta_mean_motion_dot": 1.149e-05,
        "meta_mean_motion_ddot": 0,
        "tle_line1": "1 34430U 93036RX  25355.23628896  .00001149  00000+0  36785-3 0  9995",
        "tle_line2": "2 34430  74.0518 287.6852 0060747 355.3377   4.7203 14.39656324880775"
      },
      "geometry": {
        "type": "Point",
        "coordinates": [
          98.17374589008868,
          25.36357252134716
        ]
      }
    },
    {
      "type": "Feature",
      "properties": {
        "norad_id": 34431,
        "name": "COSMOS 2251 DEB",
        "group": "cosmos-2251-debris",
        "lat": 43.68841228536421,
        "lon": 173.9591680486651,
        "alt_km": 795.8964007604282,
        "timestamp": "2025-12-22T04:03:39.562784+00:00",
        "meta_object_name": "COSMOS 2251 DEB",
        "meta_object_id": "1993-036RY",
        "meta_epoch": "2025-12-21T19:26:36.496896",
        "meta_mean_motion": 14.28802904,
        "meta_eccentricity": 0.0067941,
        "meta_inclination": 74.0738,
        "meta_ra_of_asc_node": 158.7808,
        "meta_arg_of_pericenter": 142.0492,
        "meta_mean_anomaly": 218.5474,
        "meta_ephemeris_type": 0,
        "meta_classification_type": "U",
        "meta_norad_cat_id": 34431,
        "meta_element_set_no": 999,
        "meta_rev_at_epoch": 87272,
        "meta_bstar": 0.00055769,
        "meta_mean_motion_dot": 1.416e-05,
        "meta_mean_motion_ddot": 0,
        "tle_line1": "1 34431U 93036RY  25355.81014464  .00001416  00000+0  55769-3 0  9990",
        "tle_line2": "2 34431  74.0738 158.7808 0067941 142.0492 218.5474 14.28802904872727"
      },
      "geometry": {
        "type": "Point",
        "coordinates": [
          173.9591680486651,
          43.68841228536421
        ]
      }
    },
    {
      "type": "Feature",
      "properties": {
        "norad_id": 34432,
        "name": "COSMOS 2251 DEB",
        "group": "cosmos-2251-debris",
        "lat": -69.98095184846026,
        "lon": -41.497913885966234,
        "alt_km": 890.7270262339716,
        "timestamp": "2025-12-22T04:03:39.562794+00:00",
        "meta_object_name": "COSMOS 2251 DEB",
        "meta_object_id": "1993-036RZ",
        "meta_epoch": "2025-12-21T17:09:52.890336",
        "meta_mean_motion": 14.02941941,
        "meta_eccentricity": 0.0181742,
        "meta_inclination": 73.8282,
        "meta_ra_of_asc_node": 86.5116,
        "meta_arg_of_pericenter": 167.7838,
        "meta_mean_anomaly": 316.0088,
        "meta_ephemeris_type": 0,
        "meta_classification_type": "U",
        "meta_norad_cat_id": 34432,
        "meta_element_set_no": 999,
        "meta_rev_at_epoch": 85810,
        "meta_bstar": 0.00083158,
        "meta_mean_motion_dot": 1.467e-05,
        "meta_mean_motion_ddot": 0,
        "tle_line1": "1 34432U 93036RZ  25355.71519549  .00001467  00000+0  83158-3 0  9993",
        "tle_line2": "2 34432  73.8282  86.5116 0181742 167.7838 316.0088 14.02941941858101"
      },
      "geometry": {
        "type": "Point",
        "coordinates": [
          -41.497913885966234,
          -69.98095184846026
        ]
      }
    },
    {
      "type": "Feature",
      "properties": {
        "norad_id": 34433,
        "name": "COSMOS 2251 DEB",
        "group": "cosmos-2251-debris",
        "lat": -69.27447005148889,
        "lon": 7.508370128671921,
        "alt_km": 751.04322742574,
        "timestamp": "2025-12-22T04:03:39.562804+00:00",
        "meta_object_name": "COSMOS 2251 DEB",
        "meta_object_id": "1993-036SA",
        "meta_epoch": "2025-12-21T20:02:32.024832",
        "meta_mean_motion": 14.12888627,
        "meta_eccentricity": 0.0152796,
        "meta_inclination": 74.0104,
        "meta_ra_of_asc_node": 138.8303,
        "meta_arg_of_pericenter": 274.9863,
        "meta_mean_anomaly": 83.385,
        "meta_ephemeris_type": 0,
        "meta_classification_type": "U",
        "meta_norad_cat_id": 34433,
        "meta_element_set_no": 999,
        "meta_rev_at_epoch": 86078,
        "meta_bstar": 0.00089615,
        "meta_mean_motion_dot": 1.837e-05,
        "meta_mean_motion_ddot": 0,
        "tle_line1": "1 34433U 93036SA  25355.83509288  .00001837  00000+0  89615-3 0  9991",
        "tle_line2": "2 34433  74.0104 138.8303 0152796 274.9863  83.3850 14.12888627860783"
      },
      "geometry": {
        "type": "Point",
        "coordinates": [
          7.508370128671921,
          -69.27447005148889
        ]
      }
    }
  ]
}